{"type": "FeatureCollection", "features": [ {"type": "Feature", "properties": {"norad_id": 34014, "name": "COSMOS 2251 DEB", "group": "cosmos-2251-debris", "lat": 22.92646659852037, "lon": 113.1176106958054, "alt_km": 643.5652779815146, "timestamp": "2025-12-02T19:35:50.947929+00:00", "meta": {"OBJECT_NAME": "COSMOS 2251 DEB", "OBJECT_ID": "1993-036GZ", "EPOCH": "2025-12-02T08:09:37.816128", "MEAN_MOTION": 14.72915766, "ECCENTRICITY": 0.0036699, "INCLINATION": 74.0167, "RA_OF_ASC_NODE": 301.0096, "ARG_OF_PERICENTER": 83.6245, "MEAN_ANOMALY": 66.1507, "EPHEMERIS_TYPE": 0, "CLASSIFICATION_TYPE": "U", "NORAD_CAT_ID": 34014, "ELEMENT_SET_NO": 999, "REV_AT_EPOCH": 89150, "BSTAR": 0.0012616, "MEAN_MOTION_DOT": 8.152e-05, "MEAN_MOTION_DDOT": 0}, "tle": {"line1": "1 34014U 93036GZ  25336.34002102  .00008152  00000+0  12616-2 0  9997", "line2": "2 34014  74.0167 301.0096 0036699  83.6245  66.1507 14.72915766891505"}}, "geometry": {"type": "Point", "coordinates": [113.1176106958054, 22.92646659852037]}}, {"type": "Feature", "properties": {"norad_id": 34015, "name": "COSMOS 2251 DEB", "group": "cosmos-2251-debris", "lat": 11.46187900869632, "lon": -178.29228546096274, "alt_km": 695.6945942065067, "timestamp": "2025-12-02T19:35:50.947940+00:00", "meta": {"OBJECT_NAME": "COSMOS 2251 DEB", "OBJECT_ID": "1993-036HA", "EPOCH": "2025-12-02T00:21:16.430400", "MEAN_MOTION": 14.60038239, "ECCENTRICITY": 0.00212984, "INCLINATION": 74.0237, "RA_OF_ASC_NODE": 179.9082, "ARG_OF_PERICENTER": 277.3814, "MEAN_ANOMALY": 201.8247, "EPHEMERIS_TYPE": 0, "CLASSIFICATION_TYPE": "U", "NORAD_CAT_ID": 34015, "ELEMENT_SET_NO": 999, "REV_AT_EPOCH": 88374, "BSTAR": 0.0012197969, "MEAN_MOTION_DOT": 5.852e-05, "MEAN_MOTION_DDOT": 0}, "tle": {"line1": "1 34015U 93036HA  25336.01477350  .00005852  00000+0  12198-2 0  9992", "line2": "2 34015  74.0237 179.9082 0021298 277.3814 201.8247 14.60038239883748"}}, "geometry": {"type": "Point", "coordinates": [-178.29228546096274, 11.46187900869632]}}, {"type": "Feature", "properties": {"norad_id": 34018, "name": "COSMOS 2251 DEB", "group": "cosmos-2251-debris", "lat": 73.32822730036239, "lon": -146.07435591115103, "alt_km": 831.2620754116906, "timestamp": "2025-12-02T19:35:50.947950+00:00", "meta": {"OBJECT_NAME": "COSMOS 2251 DEB", "OBJECT_ID": "1993-036HD", "EPOCH": "2025-12-02T12:34:45.193152", "MEAN_MOTION": 13.81045773, "ECCENTRICITY": 0.0264363, "INCLINATION": 73.8767, "RA_OF_ASC_NODE": 109.4066, "ARG_OF_PERICENTER": 147.2114, "MEAN_ANOMALY": 296.0821, "EPHEMERIS_TYPE": 0, "CLASSIFICATION_TYPE": "U", "NORAD_CAT_ID": 34018, "ELEMENT_SET_NO": 999, "REV_AT_EPOCH": 84516, "BSTAR": 0.00080978, "MEAN_MOTION_DOT": 1.093e-05, "MEAN_MOTION_DDOT": 0}, "tle": {"line1": "1 34018U 93036HD  25336.52413418  .00001093  00000+0  80978-3 0  9991", "line2": "2 34018  73.8767 109.4066 0264363 147.2114 296.0821 13.81045773845167"}}, "geometry": {"type": "Point", "coordinates": [-146.07435591115103, 73.32822730036239]}}, {"type": "Feature", "properties": {"norad_id": 34019, "name": "COSMOS 2251 DEB", "group": "cosmos-2251-debris", "lat": 42.401980648385155, "lon": -126.24866783190944, "alt_km": 794.6464735204054, "timestamp": "2025-12-02T19:35:50.947960+00:00", "meta": {"OBJECT_NAME": "COSMOS 2251 DEB", "OBJECT_ID": "1993-036HE", "EPOCH": "2025-12-02T09:14:27.398976", "MEAN_MOTION": 14.33849111, "ECCENTRICITY": 0.0062694, "INCLINATION": 73.9547, "RA_OF_ASC_NODE": 69.7809, "ARG_OF_PERICENTER": 252.4692, "MEAN_ANOMALY": 176.9657, "EPHEMERIS_TYPE": 0, "CLASSIFICATION_TYPE": "U", "NORAD_CAT_ID": 34019, "ELEMENT_SET_NO": 999, "REV_AT_EPOCH": 87372, "BSTAR": 0.0013015, "MEAN_MOTION_DOT": 3.678e-05, "MEAN_MOTION_DDOT": 0}, "tle": {"line1": "1 34019U 93036HE  25336.38503934  .00003678  00000+0  13015-2 0  9997", "line2": "2 34019  73.9547  69.7809 0062694 252.4692 176.9657 14.33849111873723"}}, "geometry": {"type": "Point", "coordinates": [-126.24866783190944, 42.401980648385155]}}, {"type": "Feature", "properties": {"norad_id": 34021, "name": "COSMOS 2251 DEB", "group": "cosmos-2251-debris", "lat": 22.715522342177195, "lon": 155.3424670032291, "alt_km": 725.365299652347, "timestamp": "2025-12-02T19:35:50.947970+00:00", "meta": {"OBJECT_NAME": "COSMOS 2251 DEB", "OBJECT_ID": "1993-036HG", "EPOCH": "2025-12-02T11:20:57.116256", "MEAN_MOTION": 14.49886274, "ECCENTRICITY": 0.0020673, "INCLINATION": 74.0344, "RA_OF_ASC_NODE": 149.1043, "ARG_OF_PERICENTER": 294.1135, "MEAN_ANOMALY": 96.3022, "EPHEMERIS_TYPE": 0, "CLASSIFICATION_TYPE": "U", "NORAD_CAT_ID": 34021, "ELEMENT_SET_NO": 999, "REV_AT_EPOCH": 88481, "BSTAR": 0.00056334, "MEAN_MOTION_DOT": 2.155e-05, "MEAN_MOTION_DDOT": 0}, "tle": {"line1": "1 34021U 93036HG  25336.47288329  .00002155  00000+0  56334-3 0  9999", "line2": "2 34021  74.0344 149.1043 0020673 294.1135  96.3022 14.49886274884813"}}, "geometry": {"type": "Point", "coordinates": [155.3424670032291, 22.715522342177195]}}, {"type": "Feature", "properties": {"norad_id": 34022, "name": "COSMOS 2251 DEB", "group": "cosmos-2251-debris", "lat": -48.469474962442035, "lon": 127.91309002582162, "alt_km": 777.5883070771806, "timestamp": "2025-12-02T19:35:50.947980+00:00", "meta": {"OBJECT_NAME": "COSMOS 2251 DEB", "OBJECT_ID": "1993-036HH", "EPOCH": "2025-12-02T07:32:33.011808", "MEAN_MOTION": 14.38935443, "ECCENTRICITY": 0.0022315, "INCLINATION": 74.0538, "RA_OF_ASC_NODE": 290.0046, "ARG_OF_PERICENTER": 356.9515, "MEAN_ANOMALY": 153.4115, "EPHEMERIS_TYPE": 0, "CLASSIFICATION_TYPE": "U", "NORAD_CAT_ID": 34022, "ELEMENT_SET_NO": 999, "REV_AT_EPOCH": 88045, "BSTAR": 0.00034629, "MEAN_MOTION_DOT": 1.044e-05, "MEAN_MOTION_DDOT": 0}, "tle": {"line1": "1 34022U 93036HH  25336.31427097  .00001044  00000+0  34629-3 0  9999", "line2": "2 34022  74.0538 290.0046 0022315 356.9515 153.4115 14.38935443880457"}}, "geometry": {"type": "Point", "coordinates": [127.91309002582162, -48.469474962442035]}}, {"type": "Feature", "properties": {"norad_id": 34023, "name": "COSMOS 2251 DEB", "group": "cosmos-2251-debris", "lat": 73.53387630884315, "lon": 14.367004606735271, "alt_km": 748.5751025494328, "timestamp": "2025-12-02T19:35:50.947991+00:00", "meta": {"OBJECT_NAME": "COSMOS 2251 DEB", "OBJECT_ID": "1993-036HJ", "EPOCH": "2025-12-02T06:22:15.566016", "MEAN_MOTION": 14.40520977, "ECCENTRICITY": 0.0018012, "INCLINATION": 74.0248, "RA_OF_ASC_NODE": 271.1261, "ARG_OF_PERICENTER": 8.635, "MEAN_ANOMALY": 108.3504, "EPHEMERIS_TYPE": 0, "CLASSIFICATION_TYPE": "U", "NORAD_CAT_ID": 34023, "ELEMENT_SET_NO": 999, "REV_AT_EPOCH": 88063, "BSTAR": 0.0004981, "MEAN_MOTION_DOT": 1.562e-05, "MEAN_MOTION_DDOT": 0}, "tle": {"line1": "1 34023U 93036HJ  25336.26545794  .00001562  00000+0  49810-3 0  9992", "line2": "2 34023  74.0248 271.1261 0018012   8.6350 108.3504 14.40520977880638"}}, "geometry": {"type": "Point", "coordinates": [14.367004606735271, 73.53387630884315]}}, {"type": "Feature", "properties": {"norad_id": 34024, "name": "COSMOS 2251 DEB", "group": "cosmos-2251-debris", "lat": -66.8052031688919, "lon": -67.698920009404, "alt_km": 783.3572295182266, "timestamp": "2025-12-02T19:35:50.948001+00:00", "meta": {"OBJECT_NAME": "COSMOS 2251 DEB", "OBJECT_ID": "1993-036HK", "EPOCH": "2025-12-02T10:39:01.167264", "MEAN_MOTION": 14.35377082, "ECCENTRICITY": 0.0020568, "INCLINATION": 74.0462, "RA_OF_ASC_NODE": 334.8654, "ARG_OF_PERICENTER": 28.3664, "MEAN_ANOMALY": 133.3463, "EPHEMERIS_TYPE": 0, "CLASSIFICATION_TYPE": "U", "NORAD_CAT_ID": 34024, "ELEMENT_SET_NO": 999, "REV_AT_EPOCH": 87876, "BSTAR": 0.00026341, "MEAN_MOTION_DOT": 7.32e-06, "MEAN_MOTION_DDOT": 0}, "tle": {"line1": "1 34024U 93036HK  25336.44376351  .00000732  00000+0  26341-3 0  9996", "line2": "2 34024  74.0462 334.8654 0020568  28.3664 133.3463 14.35377082878760"}}, "geometry": {"type": "Point", "coordinates": [-67.698920009404, -66.8052031688919]}}, {"type": "Feature", "properties": {"norad_id": 34026, "name": "COSMOS 2251 DEB", "group": "cosmos-2251-debris", "lat": 27.32498638625685, "lon": 165.13068986399387, "alt_km": 934.6205454734381, "timestamp": "2025-12-02T19:35:50.948012+00:00", "meta": {"OBJECT_NAME": "COSMOS 2251 DEB", "OBJECT_ID": "1993-036HM", "EPOCH": "2025-12-02T12:26:11.432832", "MEAN_MOTION": 13.65275382, "ECCENTRICITY": 0.0351265, "INCLINATION": 73.7674, "RA_OF_ASC_NODE": 354.2838, "ARG_OF_PERICENTER": 225.7786, "MEAN_ANOMALY": 263.4389, "EPHEMERIS_TYPE": 0, "CLASSIFICATION_TYPE": "U", "NORAD_CAT_ID": 34026, "ELEMENT_SET_NO": 999, "REV_AT_EPOCH": 83392, "BSTAR": 0.001261, "MEAN_MOTION_DOT": 1.538e-05, "MEAN_MOTION_DDOT": 0}, "tle": {"line1": "1 34026U 93036HM  25336.51818788  .00001538  00000+0  12610-2 0  9999", "line2": "2 34026  73.7674 354.2838 0351265 225.7786 263.4389 13.65275382833925"}}, "geometry": {"type": "Point", "coordinates": [165.13068986399387, 27.32498638625685]}}, {"type": "Feature", "properties": {"norad_id": 34028, "name": "COSMOS 2251 DEB", "group": "cosmos-2251-debris", "lat": -32.87166290014635, "lon": -8.303262795073351, "alt_km": 1598.5909015993038, "timestamp": "2025-12-02T19:35:50.948023+00:00", "meta": {"OBJECT_NAME": "COSMOS 2251 DEB", "OBJECT_ID": "1993-036HP", "EPOCH": "2025-12-02T11:16:38.572032", "MEAN_MOTION": 13.20615057, "ECCENTRICITY": 0.0544173, "INCLINATION": 73.8838, "RA_OF_ASC_NODE": 2.9959, "ARG_OF_PERICENTER": 142.5941, "MEAN_ANOMALY": 335.9565, "EPHEMERIS_TYPE": 0, "CLASSIFICATION_TYPE": "U", "NORAD_CAT_ID": 34028, "ELEMENT_SET_NO": 999, "REV_AT_EPOCH": 80872, "BSTAR": 0.00031022, "MEAN_MOTION_DOT": 2.57e-06, "MEAN_MOTION_DDOT": 0}, "tle": {"line1": "1 34028U 93036HP  25336.46989088  .00000257  00000+0  31022-3 0  9993", "line2": "2 34028  73.8838   2.9959 0544173 142.5941 335.9565 13.20615057808721"}}, "geometry": {"type": "Point", "coordinates": [-8.303262795073351, -32.87166290014635]}}]}